sat03591
1 03591U 66041E   20046.87776265  .00000195  00000-0  11712-3 0  9995
2 03591  90.1599  32.4513 0073131 237.0468 122.3667 14.02786679742961
